1 23546U 95017B   19282.54275032  .00000257  00000-0  54520-4 0  9996
2 23546  69.9700 110.6534 0006367 174.9894 185.1315 14.70305656306108
1 23546U 95017B   19282.88290985 +.00000256 +00000-0 +54416-4 0  9990
2 23546 069.9700 109.8316 0006340 174.4984 185.6231 14.70305821305859
1 23546U 95017B   19283.76732420  .00000261  00000-0  55251-4 0  9997
2 23546  69.9700 107.6947 0006280 173.1481 186.9751 14.70306422306283
1 23546U 95017B   19283.90338799 +.00000252 +00000-0 +53695-4 0  9994
2 23546 069.9700 107.3660 0006269 172.9228 187.2006 14.70306437306008
